*******************************************************************************
JPL/HORIZONS                 34 Circe (A855 GA)            2020-Jun-20 07:56:28
Rec #:      34 (+COV) Soln.date: 2020-Feb-22_15:15:17   # obs: 3356 (1864-2019)
 
IAU76/J2000 helio. ecliptic osc. elements (au, days, deg., period=Julian yrs):
 
  EPOCH=  2454057.5 ! 2006-Nov-18.00 (TDB)         Residual RMS= .27409
   EC= .1086524273615509   QR= 2.393513373762675   TP= 2454812.855037678
   OM= 184.5343633095739   W=  330.0915526360488   IN= 5.503499105463638
   A= 2.685275023162641    MA= 190.8110304252187   ADIST= 2.977036672562606
   PER= 4.40039            N= .223986015           ANGMOM= .028021868
   DAN= 2.42517            DDN= 2.92948            L= 154.7402098
   B= -2.740957            MOID= 1.40401995        TP= 2008-Dec-12.3550376780
 
Asteroid physical parameters (km, seconds, rotational period in hours):
   GM= n.a.                RAD= 66.496             ROTPER= 12.15
   H= 8.6                  G= .150                 B-V= .707
                           ALBEDO= .023            STYP= Ch
 
ASTEROID comments: 
1: soln ref.= JPL#79, OCC=0
2: source=ORB
*******************************************************************************
 
 
*******************************************************************************
Ephemeris / WWW_USER Sat Jun 20 07:56:28 2020 Pasadena, USA      / Horizons
*******************************************************************************
Target body name: 34 Circe (A855 GA)              {source: JPL#79}
Center body name: Solar System Barycenter (0)     {source: DE431}
Center-site name: BODY CENTER
*******************************************************************************
Start time      : A.D. 1969-Jun-28 00:00:00.0000 TDB
Stop  time      : A.D. 2071-May-04 00:00:00.0000 TDB
Step-size       : 7200 minutes
*******************************************************************************
Center geodetic : 0.00000000,0.00000000,0.0000000 {E-lon(deg),Lat(deg),Alt(km)}
Center cylindric: 0.00000000,0.00000000,0.0000000 {E-lon(deg),Dxy(km),Dz(km)}
Center radii    : (undefined)                                                  
Small perturbers: Yes                             {source: SB431-N16}
Output units    : AU-D
Output type     : GEOMETRIC cartesian states
Output format   : 2 (position and velocity)
Reference frame : Ecliptic of J2000.0
*******************************************************************************
Initial IAU76/J2000 heliocentric ecliptic osculating elements (au, days, deg.):
  EPOCH=  2454057.5 ! 2006-Nov-18.00 (TDB)         Residual RMS= .27409        
   EC= .1086524273615509   QR= 2.393513373762675   TP= 2454812.855037678       
   OM= 184.5343633095739   W=  330.0915526360488   IN= 5.503499105463638       
  Equivalent ICRF heliocentric equatorial cartesian coordinates (au, au/d):
   X= 2.848199608385702E+00  Y=-8.166315771526471E-01  Z=-2.418966659544156E-01
  VX= 2.532324714539466E-03 VY= 8.633083376066783E-03 VZ= 2.817400467116050E-03
Asteroid physical parameters (km, seconds, rotational period in hours):        
   GM= n.a.                RAD= 66.496             ROTPER= 12.15               
   H= 8.6                  G= .150                 B-V= .707                   
                           ALBEDO= .023            STYP= Ch                    
*******************************************************************************
            JDTDB,            Calendar Date (TDB),        delta-T,                      X,                      Y,                      Z,                     VX,                     VY,                     VZ,
******************************************************************************************************************************************************************************************************************
$$SOE
2464340.500000000, A.D. 2035-Jan-13 00:00:00.0000,      69.184234, -1.194023751709561E+00,  2.117100884301669E+00, -2.122150876660180E-01, -9.692531633321797E-03, -6.159464644725938E-03,  5.269277746427689E-04,
2464345.500000000, A.D. 2035-Jan-18 00:00:00.0000,      69.184376, -1.242179676793945E+00,  2.085766470668154E+00, -2.095266643308364E-01, -9.568937682689984E-03, -6.373914305426404E-03,  5.484104244012750E-04,
2464350.500000000, A.D. 2035-Jan-23 00:00:00.0000,      69.184514, -1.289704153647456E+00,  2.053365738771662E+00, -2.067313077495549E-01, -9.439958990928331E-03, -6.585965453303154E-03,  5.696984764968963E-04,
2464355.500000000, A.D. 2035-Jan-28 00:00:00.0000,      69.184647, -1.336570363134645E+00,  2.019911078520161E+00, -2.038300298817048E-01, -9.305638352066090E-03, -6.795459180229033E-03,  5.907763387533520E-04,
2464360.500000000, A.D. 2035-Feb-02 00:00:00.0000,      69.184776, -1.382751714620601E+00,  1.985415673710320E+00, -2.008239206827931E-01, -9.166024380102795E-03, -7.002236881277992E-03,  6.116284090461560E-04,
2464365.500000000, A.D. 2035-Feb-07 00:00:00.0000,      69.184901, -1.428221875178040E+00,  1.949893499868979E+00, -1.977141480919492E-01, -9.021171549946898E-03, -7.206140512840743E-03,  6.322391002597391E-04,
2464370.500000000, A.D. 2035-Feb-12 00:00:00.0000,      69.185019, -1.472954798969758E+00,  1.913359320790125E+00, -1.945019578936058E-01, -8.871140226524660E-03, -7.407012855832424E-03,  6.525928656208502E-04,
2464375.500000000, A.D. 2035-Feb-17 00:00:00.0000,      69.185128, -1.516924756744278E+00,  1.875828683747200E+00, -1.911886734521289E-01, -8.715996680668277E-03, -7.604697782241331E-03,  6.726742242035409E-04,
2464380.500000000, A.D. 2035-Feb-22 00:00:00.0000,      69.185227, -1.560106365375186E+00,  1.837317913364970E+00, -1.877756953181646E-01, -8.555813090585845E-03, -7.799040524714924E-03,  6.924677867569610E-04,
2464385.500000000, A.D. 2035-Feb-27 00:00:00.0000,      69.185317, -1.602474617370814E+00,  1.797844104136812E+00, -1.842645007049590E-01, -8.390667528489102E-03, -7.989887948680450E-03,  7.119582818794263E-04,
2464390.500000000, A.D. 2035-Mar-04 00:00:00.0000,      69.185398, -1.644004910279426E+00,  1.757425111576893E+00, -1.806566428331064E-01, -8.220643932119943E-03, -8.177088826109223E-03,  7.311305824564418E-04,
2464395.500000000, A.D. 2035-Mar-09 00:00:00.0000,      69.185469, -1.684673075913703E+00,  1.716079542001448E+00, -1.769537501426439E-01, -8.045832060900442E-03, -8.360494109942922E-03,  7.499697322702561E-04,
2464400.500000000, A.D. 2035-Mar-14 00:00:00.0000,      69.185530, -1.724455409317022E+00,  1.673826740938290E+00, -1.731575253718422E-01, -7.866327436464539E-03, -8.539957208222372E-03,  7.684609726979186E-04,
2464405.500000000, A.D. 2035-Mar-19 00:00:00.0000,      69.185578, -1.763328697393015E+00,  1.630686780168398E+00, -1.692697445024569E-01, -7.682231267421721E-03, -8.715334256964599E-03,  7.865897694149603E-04,
2464410.500000000, A.D. 2035-Mar-24 00:00:00.0000,      69.185612, -1.801270247119378E+00,  1.586680443408277E+00, -1.652922555716305E-01, -7.493650358292546E-03, -8.886484390812221E-03,  8.043418390158688E-04,
2464415.500000000, A.D. 2035-Mar-29 00:00:00.0000,      69.185635, -1.838257913266831E+00,  1.541829210646710E+00, -1.612269773510955E-01, -7.300697002641902E-03, -9.053270010461851E-03,  8.217031754577721E-04,
2464420.500000000, A.D. 2035-Apr-03 00:00:00.0000,      69.185646, -1.874270125544431E+00,  1.496155241154511E+00, -1.570758978947996E-01, -7.103488860511915E-03, -9.215557045865455E-03,  8.386600762313276E-04,
2464425.500000000, A.D. 2035-Apr-08 00:00:00.0000,      69.185647, -1.909285915093152E+00,  1.449681355190918E+00, -1.528410729565592E-01, -6.902148820330804E-03, -9.373215214214759E-03,  8.551991681633942E-04,
2464430.500000000, A.D. 2035-Apr-13 00:00:00.0000,      69.185636, -1.943284940250802E+00,  1.402431014435086E+00, -1.485246242798268E-01, -6.696804845615597E-03, -9.526118271754315E-03,  8.713074327480519E-04,
2464435.500000000, A.D. 2035-Apr-18 00:00:00.0000,      69.185611, -1.976247511513696E+00,  1.354428301176036E+00, -1.441287377622888E-01, -6.487589807110629E-03, -9.674144258396132E-03,  8.869722308515201E-04,
2464440.500000000, A.D. 2035-Apr-23 00:00:00.0000,      69.185573, -2.008154615624557E+00,  1.305697896300348E+00, -1.396556614989803E-01, -6.274641301280102E-03, -9.817175733729653E-03,  9.021813265597628E-04,
2464445.500000000, A.D. 2035-Apr-28 00:00:00.0000,      69.185524, -2.038987938719465E+00,  1.256265056124821E+00, -1.351077037086088E-01, -6.058101455334358E-03, -9.955100002807056E-03,  9.169229100611728E-04,
2464450.500000000, A.D. 2035-May-03 00:00:00.0000,      69.185466, -2.068729888464324E+00,  1.206155588127013E+00, -1.304872305474111E-01, -5.838116717895414E-03, -1.008780933127113E-02,  9.311856197998414E-04,
2464455.500000000, A.D. 2035-May-08 00:00:00.0000,      69.185398, -2.097363615109380E+00,  1.155395825625678E+00, -1.257966638137995E-01, -5.614837635862049E-03, -1.021520115029040E-02,  9.449585639696423E-04,
2464460.500000000, A.D. 2035-May-13 00:00:00.0000,      69.185319, -2.124873031398522E+00,  1.104012601463572E+00, -1.210384785480316E-01, -5.388418619850627E-03, -1.033717825035572E-02,  9.582313409274595E-04,
2464465.500000000, A.D. 2035-May-18 00:00:00.0000,      69.185230, -2.151242831280456E+00,  1.052033220753319E+00, -1.162152005332521E-01, -5.159017699571527E-03, -1.045364896197821E-02,  9.709940582156481E-04,
2464470.500000000, A.D. 2035-May-23 00:00:00.0000,      69.185131, -2.176458507371966E+00,  9.994854327550101E-01, -1.113294037048571E-01, -4.926796269317084E-03, -1.056452732221241E-02,  9.832373502271818E-04,
2464475.500000000, A.D. 2035-May-28 00:00:00.0000,      69.185024, -2.200506367124673E+00,  9.463974019573758E-01, -1.063837074747797E-01, -4.691918823989978E-03, -1.066973322665504E-02,  9.949523945731345E-04,
